[{"_id":"55f14312c7447c3da7051b26","URL":"http://www.just-eat.co.uk/restaurants-cn-chinese-cardiff/menu","address":"228 City Road","address line 2":"Cardiff","name":".CN Chinese","outcode":"CF24","postcode":"3JH","rating":5,"type_of_food":"Chinese"},{"_id":"55f14313c7447c3da7052514","URL":"http://www.just-eat.co.uk/restaurants-bluebell-ch41/menu","address":"126 Duke Street","address line 2":"Birkenhead","name":"Blue Bell","outcode":"CH41","postcode":"8BT","rating":5,"type_of_food":"Chinese"},{"_id":"55f14313c7447c3da7052515","URL":"http://www.just-eat.co.uk/restaurants-bluebengal-br4/menu","address":"101 High Street West Wickham","address line 2":"Kent","name":"Blue Bengal Restaurant","outcode":"BR4","postcode":"0LT","rating":4.5,"type_of_food":"Curry"},{"_id":"55f14313c7447c3da7052516","URL":"http://www.just-eat.co.uk/restaurants-bluebengal-br4/menu","address":"101 High Street West Wickham","address line 2":"Kent","name":"Blue Bengal Restaurant","outcode":"BR4","postcode":"0LT","rating":4.5,"type_of_food":"Curry"},{"_id":"55f14313c7447c3da7052517","URL":"http://www.just-eat.co.uk/restaurants-blue-box-cafe-southampton/menu","address":"104-106 Bevois Valley Road","address line 2":"Southampton","name":"Blue Box","outcode":"SO14","postcode":"0JZ","rating":5,"type_of_food":"Grill"},{"_id":"55f14313c7447c3da7052518","URL":"http://www.just-eat.co.uk/restaurants-bluebreeze-le3/menu","address":"56 Bonney Road","address line 2":"Leicester","name":"Blue Breeze Fish Bar","outcode":"LE3","postcode":"9NG","rating":5.5,"type_of_food":"Fish & Chips"},{"_id":"55f14313c7447c3da7052519","URL":"http://www.just-eat.co.uk/restaurants-bluebreeze-le3/menu","address":"56 Bonney Road","address line 2":"Leicester","name":"Blue Breeze Fish Bar","outcode":"LE3","postcode":"9NG","rating":5.5,"type_of_food":"Fish & Chips"},{"_id":"55f14312c7447c3da7051ba1","URL":"http://www.just-eat.co.uk/restaurants-eko-food-market-charton/menu","address":"Unit 5 Meridan Estate","address line 2":"London","name":"èkó Food Market","outcode":"SE7","postcode":"7SJ","rating":4,"type_of_food":"African"},{"_id":"55f14312c7447c3da7051ba2","URL":"http://www.just-eat.co.uk/restaurants-eko-food-market-charton/menu","address":"Unit 5 Meridan Estate","address line 2":"London","name":"èkó Food Market","outcode":"SE7","postcode":"7SJ","rating":4,"type_of_food":"African"}]
